start=new Date('2021-10-30T00:00:00.000Z').valueOf();
sats=[{"LAUNCH_DATE":"2021-05-15","MEAN_ANOMALY":"283.1925","OBJECT_ID":"2021-041AN","MEAN_MOTION":"15.06396556","PERIAPSIS":"545.861","GP_ID":"188469425","OBJECT_TYPE":"PAYLOAD","ECCENTRICITY":"0.00019680","OBJECT_NAME":"STARLINK-2245","INCLINATION":"53.0551","APOAPSIS":"548.587","MEAN_MOTION_DDOT":"0.0000000000000","TIME_SYSTEM":"UTC","FILE":"3191844","MEAN_ELEMENT_THEORY":"SGP4","REF_FRAME":"TEME","CENTER_NAME":"EARTH","NORAD_CAT_ID":"48589","RCS_SIZE":"LARGE","BSTAR":"0.00004607600000","PERIOD":"95.592","DECAY_DATE":null,"REV_AT_EPOCH":"2527","SEMIMAJOR_AXIS":"6925.359","ELEMENT_SET_NO":"999","CLASSIFICATION_TYPE":"U","EPOCH":"2021-10-29T20:35:20.951232","RA_OF_ASC_NODE":"77.6311","SITE":"AFETR","EPHEMERIS_TYPE":"0","TLE_LINE2":"2 48589  53.0551  77.6311 0001968  76.9283 283.1925 15.06396556 25271","MEAN_MOTION_DOT":"0.00000405","ARG_OF_PERICENTER":"76.9283","COUNTRY_CODE":"US","TLE_LINE1":"1 48589U 21041AN  21302.85788138  .00000405  00000-0  46076-4 0  9994"},{"REF_FRAME":"TEME","RCS_SIZE":"LARGE","CENTER_NAME":"EARTH","NORAD_CAT_ID":"48590","BSTAR":"0.00004916900000","DECAY_DATE":null,"PERIOD":"95.592","REV_AT_EPOCH":"2513","SEMIMAJOR_AXIS":"6925.344","ELEMENT_SET_NO":"999","CLASSIFICATION_TYPE":"U","EPOCH":"2021-10-29T21:11:10.663584","RA_OF_ASC_NODE":"87.5105","TLE_LINE2":"2 48590  53.0555  87.5105 0001777  89.9607 270.1586 15.06401539 25132","EPHEMERIS_TYPE":"0","SITE":"AFETR","TLE_LINE1":"1 48590U 21041AP  21302.88276231  .00000451  00000-0  49169-4 0  9992","COUNTRY_CODE":"US","ARG_OF_PERICENTER":"89.9607","MEAN_MOTION_DOT":"0.00000451","LAUNCH_DATE":"2021-05-15","MEAN_ANOMALY":"270.1586","OBJECT_ID":"2021-041AP","PERIAPSIS":"545.978","GP_ID":"188469666","OBJECT_TYPE":"PAYLOAD","MEAN_MOTION":"15.06401539","ECCENTRICITY":"0.00017770","OBJECT_NAME":"STARLINK-2246","APOAPSIS":"548.439","INCLINATION":"53.0555","TIME_SYSTEM":"UTC","MEAN_MOTION_DDOT":"0.0000000000000","MEAN_ELEMENT_THEORY":"SGP4","FILE":"3191844"},{"CENTER_NAME":"EARTH","NORAD_CAT_ID":"48591","RCS_SIZE":"LARGE","REF_FRAME":"TEME","PERIOD":"95.593","DECAY_DATE":null,"BSTAR":"0.00006898300000","RA_OF_ASC_NODE":"78.5589","SEMIMAJOR_AXIS":"6925.374","REV_AT_EPOCH":"2614","ELEMENT_SET_NO":"999","EPOCH":"2021-10-29T15:38:07.745856","CLASSIFICATION_TYPE":"U","MEAN_MOTION_DOT":"0.00000746","ARG_OF_PERICENTER":"87.3478","TLE_LINE1":"1 48591U 21041AQ  21302.65147854  .00000746  00000-0  68983-4 0  9998","COUNTRY_CODE":"US","EPHEMERIS_TYPE":"0","SITE":"AFETR","TLE_LINE2":"2 48591  53.0557  78.5589 0001847  87.3478 272.7723 15.06391592 26147","MEAN_MOTION":"15.06391592","GP_ID":"188470000","PERIAPSIS":"545.960","OBJECT_TYPE":"PAYLOAD","LAUNCH_DATE":"2021-05-15","OBJECT_ID":"2021-041AQ","MEAN_ANOMALY":"272.7723","INCLINATION":"53.0557","APOAPSIS":"548.518","ECCENTRICITY":"0.00018470","OBJECT_NAME":"STARLINK-2248","MEAN_ELEMENT_THEORY":"SGP4","FILE":"3191844","MEAN_MOTION_DDOT":"0.0000000000000","TIME_SYSTEM":"UTC"},{"RCS_SIZE":"MEDIUM","CENTER_NAME":"EARTH","NORAD_CAT_ID":"48592","REF_FRAME":"TEME","DECAY_DATE":null,"PERIOD":"95.592","BSTAR":"0.00003531500000","RA_OF_ASC_NODE":"88.5611","SEMIMAJOR_AXIS":"6925.330","ELEMENT_SET_NO":"999","REV_AT_EPOCH":"2510","CLASSIFICATION_TYPE":"U","EPOCH":"2021-10-29T15:36:48.760704","TLE_LINE1":"1 48592U 21041AR  21302.65056436  .00000245  00000-0  35315-4 0  9991","COUNTRY_CODE":"US","MEAN_MOTION_DOT":"0.00000245","ARG_OF_PERICENTER":"71.5212","TLE_LINE2":"2 48592  53.0564  88.5611 0001552  71.5212 288.5946 15.06405912 25106","EPHEMERIS_TYPE":"0","SITE":"AFETR","GP_ID":"188469550","PERIAPSIS":"546.121","OBJECT_TYPE":"PAYLOAD","MEAN_MOTION":"15.06405912","LAUNCH_DATE":"2021-05-15","MEAN_ANOMALY":"288.5946","OBJECT_ID":"2021-041AR","APOAPSIS":"548.270","INCLINATION":"53.0564","OBJECT_NAME":"STARLINK-2249","ECCENTRICITY":"0.00015520","FILE":"3191844","MEAN_ELEMENT_THEORY":"SGP4","TIME_SYSTEM":"UTC","MEAN_MOTION_DDOT":"0.0000000000000"},{"RCS_SIZE":"LARGE","NORAD_CAT_ID":"48593","CENTER_NAME":"EARTH","REF_FRAME":"TEME","DECAY_DATE":null,"PERIOD":"95.592","BSTAR":"0.00008462300000","RA_OF_ASC_NODE":"87.9272","CLASSIFICATION_TYPE":"U","EPOCH":"2021-10-29T18:58:29.161920","ELEMENT_SET_NO":"999","SEMIMAJOR_AXIS":"6925.366","REV_AT_EPOCH":"2512","COUNTRY_CODE":"US","TLE_LINE1":"1 48593U 21041AS  21302.79061530  .00000979  00000-0  84623-4 0  9998","ARG_OF_PERICENTER":"68.7050","MEAN_MOTION_DOT":"0.00000979","TLE_LINE2":"2 48593  53.0553  87.9272 0001968  68.7050 291.4149 15.06394438 25120","SITE":"AFETR","EPHEMERIS_TYPE":"0","OBJECT_TYPE":"PAYLOAD","GP_ID":"188469779","PERIAPSIS":"545.868","MEAN_MOTION":"15.06394438","MEAN_ANOMALY":"291.4149","LAUNCH_DATE":"2021-05-15","OBJECT_ID":"2021-041AS","APOAPSIS":"548.594","INCLINATION":"53.0553","OBJECT_NAME":"STARLINK-2250","ECCENTRICITY":"0.00019680","FILE":"3191844","MEAN_ELEMENT_THEORY":"SGP4","TIME_SYSTEM":"UTC","MEAN_MOTION_DDOT":"0.0000000000000"},{"REF_FRAME":"TEME","CENTER_NAME":"EARTH","NORAD_CAT_ID":"48594","RCS_SIZE":"LARGE","BSTAR":"-0.00213860000000","PERIOD":"95.399","DECAY_DATE":null,"SEMIMAJOR_AXIS":"6916.022","ELEMENT_SET_NO":"999","REV_AT_EPOCH":"357","EPOCH":"2021-10-29T22:00:01.999584","CLASSIFICATION_TYPE":"U","RA_OF_ASC_NODE":"56.6318","EPHEMERIS_TYPE":"0","SITE":"AFETR","TLE_LINE2":"2 48594  53.0548  56.6318 0001433  65.6315 162.0279 15.09448127  3576","MEAN_MOTION_DOT":"-0.00034735","ARG_OF_PERICENTER":"65.6315","COUNTRY_CODE":"US","TLE_LINE1":"1 48594U 21041AT  21302.91668981 -.00034735  00000-0 -21386-2 0  9990","MEAN_ANOMALY":"162.0279","LAUNCH_DATE":"2021-05-15","OBJECT_ID":"2021-041AT","MEAN_MOTION":"15.09448127","PERIAPSIS":"536.896","GP_ID":"188469313","OBJECT_TYPE":"PAYLOAD","OBJECT_NAME":"STARLINK-2251","ECCENTRICITY":"0.00014330","INCLINATION":"53.0548","APOAPSIS":"538.878","MEAN_MOTION_DDOT":"0.0000000000000","TIME_SYSTEM":"UTC","MEAN_ELEMENT_THEORY":"SGP4","FILE":"3191844"},{"INCLINATION":"53.0558","APOAPSIS":"548.081","OBJECT_NAME":"STARLINK-2252","ECCENTRICITY":"0.00013040","MEAN_ELEMENT_THEORY":"SGP4","FILE":"3191844","MEAN_MOTION_DDOT":"0.0000000000000","TIME_SYSTEM":"UTC","MEAN_MOTION":"15.06411560","OBJECT_TYPE":"PAYLOAD","PERIAPSIS":"546.275","GP_ID":"188469890","LAUNCH_DATE":"2021-05-15","OBJECT_ID":"2021-041AU","MEAN_ANOMALY":"271.3051","RA_OF_ASC_NODE":"88.0099","EPOCH":"2021-10-29T18:31:56.498016","CLASSIFICATION_TYPE":"U","ELEMENT_SET_NO":"999","SEMIMAJOR_AXIS":"6925.313","REV_AT_EPOCH":"2639","MEAN_MOTION_DOT":"0.00001017","ARG_OF_PERICENTER":"88.8087","COUNTRY_CODE":"US","TLE_LINE1":"1 48595U 21041AU  21302.77218169  .00001017  00000-0  87126-4 0  9995","EPHEMERIS_TYPE":"0","SITE":"AFETR","TLE_LINE2":"2 48595  53.0558  88.0099 0001304  88.8087 271.3051 15.06411560 26398","NORAD_CAT_ID":"48595","CENTER_NAME":"EARTH","RCS_SIZE":"LARGE","REF_FRAME":"TEME","PERIOD":"95.591","DECAY_DATE":null,"BSTAR":"0.00008712600000"},{"ECCENTRICITY":"0.00012480","OBJECT_NAME":"STARLINK-2253","APOAPSIS":"548.107","INCLINATION":"53.0556","TIME_SYSTEM":"UTC","MEAN_MOTION_DDOT":"0.0000000000000","FILE":"3191844","MEAN_ELEMENT_THEORY":"SGP4","MEAN_ANOMALY":"274.2914","LAUNCH_DATE":"2021-05-15","OBJECT_ID":"2021-041AV","PERIAPSIS":"546.378","GP_ID":"188469197","OBJECT_TYPE":"PAYLOAD","MEAN_MOTION":"15.06390536","REV_AT_EPOCH":"2559","SEMIMAJOR_AXIS":"6925.378","ELEMENT_SET_NO":"999","EPOCH":"2021-10-29T20:39:20.727648","CLASSIFICATION_TYPE":"U","RA_OF_ASC_NODE":"87.6116","TLE_LINE2":"2 48596  53.0556  87.6116 0001248  85.8218 274.2914 15.06390536 25592","SITE":"AFETR","EPHEMERIS_TYPE":"0","TLE_LINE1":"1 48596U 21041AV  21302.86065657  .00000054  00000-0  22540-4 0  9997","COUNTRY_CODE":"US","MEAN_MOTION_DOT":"0.00000054","ARG_OF_PERICENTER":"85.8218","REF_FRAME":"TEME","RCS_SIZE":"LARGE","CENTER_NAME":"EARTH","NORAD_CAT_ID":"48596","BSTAR":"0.00002254000000","DECAY_DATE":null,"PERIOD":"95.593"},{"REF_FRAME":"TEME","CENTER_NAME":"EARTH","NORAD_CAT_ID":"48597","RCS_SIZE":"LARGE","BSTAR":"0.00015166000000","PERIOD":"95.592","DECAY_DATE":null,"SEMIMAJOR_AXIS":"6925.339","REV_AT_EPOCH":"2639","ELEMENT_SET_NO":"999","CLASSIFICATION_TYPE":"U","EPOCH":"2021-10-29T19:14:24.343296","RA_OF_ASC_NODE":"87.8816","SITE":"AFETR","EPHEMERIS_TYPE":"0","TLE_LINE2":"2 48597  53.0554  87.8816 0001649  89.5048 270.6130 15.06403250 26394","MEAN_MOTION_DOT":"0.00001978","ARG_OF_PERICENTER":"89.5048","COUNTRY_CODE":"US","TLE_LINE1":"1 48597U 21041AW  21302.80167064  .00001978  00000-0  15166-3 0  9998","OBJECT_ID":"2021-041AW","LAUNCH_DATE":"2021-05-15","MEAN_ANOMALY":"270.6130","MEAN_MOTION":"15.06403250","PERIAPSIS":"546.062","GP_ID":"188469426","OBJECT_TYPE":"PAYLOAD","ECCENTRICITY":"0.00016490","OBJECT_NAME":"STARLINK-2255","INCLINATION":"53.0554","APOAPSIS":"548.346","MEAN_MOTION_DDOT":"0.0000000000000","TIME_SYSTEM":"UTC","FILE":"3191844","MEAN_ELEMENT_THEORY":"SGP4"},{"FILE":"3191844","MEAN_ELEMENT_THEORY":"SGP4","TIME_SYSTEM":"UTC","MEAN_MOTION_DDOT":"0.0000000000000","APOAPSIS":"548.156","INCLINATION":"53.0563","ECCENTRICITY":"0.00014120","OBJECT_NAME":"STARLINK-2256","GP_ID":"188469667","PERIAPSIS":"546.200","OBJECT_TYPE":"PAYLOAD","MEAN_MOTION":"15.06411586","LAUNCH_DATE":"2021-05-15","MEAN_ANOMALY":"274.0271","OBJECT_ID":"2021-041AX","TLE_LINE1":"1 48598U 21041AX  21302.67266866  .00000699  00000-0  65822-4 0  9998","COUNTRY_CODE":"US","MEAN_MOTION_DOT":"0.00000699","ARG_OF_PERICENTER":"86.0880","TLE_LINE2":"2 48598  53.0563  88.4626 0001412  86.0880 274.0271 15.06411586 25568","EPHEMERIS_TYPE":"0","SITE":"AFETR","RA_OF_ASC_NODE":"88.4626","ELEMENT_SET_NO":"999","SEMIMAJOR_AXIS":"6925.313","REV_AT_EPOCH":"2556","CLASSIFICATION_TYPE":"U","EPOCH":"2021-10-29T16:08:38.572224","DECAY_DATE":null,"PERIOD":"95.591","BSTAR":"0.00006582200000","RCS_SIZE":"LARGE","CENTER_NAME":"EARTH","NORAD_CAT_ID":"48598","REF_FRAME":"TEME"}];
